STARLINK-31680          
1 59380U 24062G   26066.28682698  .00000958  00000+0  44463-4 0  9994
2 59380  53.1592 269.6580 0001327  83.8904 276.2248 15.30191967109220
STARLINK-31713          
1 59381U 24062H   26066.01290810  .00000555  00000+0  30861-4 0  9997
2 59381  53.1589 270.7922 0001276  87.0284 273.0863 15.30187654109181
STARLINK-31705          
1 59382U 24062J   26065.96910911  .00000398  00000+0  25553-4 0  9999
2 59382  53.1609 268.3857 0001244  90.2432 269.8712 15.30196272109217
STARLINK-31715          
1 59384U 24062L   26064.97250533 -.00000080  00000+0  94324-5 0  9990
2 59384  53.1595 272.8354 0001082  81.5071 278.6053 15.30191218109106
STARLINK-31717          
1 59385U 24062M   26065.97861113  .00007770  00000+0  27432-3 0  9990
2 59385  53.1575 268.4450 0001103 104.3509 255.7614 15.30185390109245
STARLINK-31688          
1 59386U 24062N   26066.27099918  .00002561  00000+0  98590-4 0  9998
2 59386  53.1566 269.5602 0002437  86.2753 273.8526 15.30201389109225
STARLINK-31714          
1 59387U 24062P   26065.98176541  .00006419  00000+0  22869-3 0  9995
2 59387  53.1605 268.4684 0001298 225.0341 135.0555 15.30197566109208
STARLINK-31643          
1 59388U 24062Q   26064.73446322  .00002669  00000+0  10225-3 0  9991
2 59388  53.1604 274.1893 0000940  80.5265 279.5843 15.30183836109069
STARLINK-31647          
1 59389U 24062R   26065.98705856  .00001034  00000+0  47050-4 0  9992
2 59389  53.1603 268.5328 0001314  78.2271 281.8877 15.30190209109252
STARLINK-31649          
1 59390U 24062S   26065.96488812  .00001913  00000+0  76707-4 0  9999
2 59390  53.1608 268.3608 0001303  85.4155 274.6995 15.30193298109259
STARLINK-31644          
1 59391U 24062T   26066.00657865  .00000426  00000+0  26526-4 0  9994
2 59391  53.1583 270.7533 0001188  97.2637 262.8499 15.30188347109227
STARLINK-31626          
1 59392U 24062U   26066.27563391  .00001105  00000+0  49440-4 0  9999
2 59392  53.1590 266.7428 0001315 100.8421 259.2728 15.30189171109308
STARLINK-31443          
1 59393U 24062V   26065.79897617  .00000862  00000+0  41236-4 0  9991
2 59393  53.1586 256.4927 0001019  82.4100 277.7017 15.30186824109403
STARLINK-31607          
1 59394U 24062W   26066.28196238  .00001416  00000+0  59940-4 0  9995
2 59394  53.1610 266.7821 0001168  94.9677 265.1457 15.30196562109297
STARLINK-31608          
1 59397U 24062X   26066.24619886  .00000446  00000+0  27181-4 0  9997
2 59397  53.1582 267.2708 0000853  88.8302 271.2797 15.30193806109243
STARLINK-31534          
1 59398U 24064A   26066.03194536  .00000842  00000+0  40114-4 0  9998
2 59398  43.0003  70.8114 0000771 274.1309  85.9454 15.27572943108760
