[{"OBJECT_NAME":"STARLINK-31680","OBJECT_ID":"2024-062G","EPOCH":"2026-03-07T06:53:01.851072","MEAN_MOTION":15.30191967,"ECCENTRICITY":0.0001327,"INCLINATION":53.1592,"RA_OF_ASC_NODE":269.658,"ARG_OF_PERICENTER":83.8904,"MEAN_ANOMALY":276.2248,"EPHEMERIS_TYPE":0,"CLASSIFICATION_TYPE":"U","NORAD_CAT_ID":59380,"ELEMENT_SET_NO":999,"REV_AT_EPOCH":10922,"BSTAR":4.4463217e-5,"MEAN_MOTION_DOT":9.58e-6,"MEAN_MOTION_DDOT":0},{"OBJECT_NAME":"STARLINK-31713","OBJECT_ID":"2024-062H","EPOCH":"2026-03-07T00:18:35.259840","MEAN_MOTION":15.30187654,"ECCENTRICITY":0.00012761,"INCLINATION":53.1589,"RA_OF_ASC_NODE":270.7922,"ARG_OF_PERICENTER":87.0284,"MEAN_ANOMALY":273.0863,"EPHEMERIS_TYPE":0,"CLASSIFICATION_TYPE":"U","NORAD_CAT_ID":59381,"ELEMENT_SET_NO":999,"REV_AT_EPOCH":10918,"BSTAR":3.0860902e-5,"MEAN_MOTION_DOT":5.55e-6,"MEAN_MOTION_DDOT":0},{"OBJECT_NAME":"STARLINK-31705","OBJECT_ID":"2024-062J","EPOCH":"2026-03-06T23:15:31.027104","MEAN_MOTION":15.30196272,"ECCENTRICITY":0.00012447,"INCLINATION":53.1609,"RA_OF_ASC_NODE":268.3857,"ARG_OF_PERICENTER":90.2432,"MEAN_ANOMALY":269.8712,"EPHEMERIS_TYPE":0,"CLASSIFICATION_TYPE":"U","NORAD_CAT_ID":59382,"ELEMENT_SET_NO":999,"REV_AT_EPOCH":10921,"BSTAR":2.5553227e-5,"MEAN_MOTION_DOT":3.98e-6,"MEAN_MOTION_DDOT":0},{"OBJECT_NAME":"STARLINK-31715","OBJECT_ID":"2024-062L","EPOCH":"2026-03-05T23:20:24.460512","MEAN_MOTION":15.30191218,"ECCENTRICITY":0.00010826,"INCLINATION":53.1595,"RA_OF_ASC_NODE":272.8354,"ARG_OF_PERICENTER":81.5071,"MEAN_ANOMALY":278.6053,"EPHEMERIS_TYPE":0,"CLASSIFICATION_TYPE":"U","NORAD_CAT_ID":59384,"ELEMENT_SET_NO":999,"REV_AT_EPOCH":10910,"BSTAR":9.432387e-6,"MEAN_MOTION_DOT":-8.0e-7,"MEAN_MOTION_DDOT":0},{"OBJECT_NAME":"STARLINK-31717","OBJECT_ID":"2024-062M","EPOCH":"2026-03-06T23:29:12.001632","MEAN_MOTION":15.3018539,"ECCENTRICITY":0.00011033,"INCLINATION":53.1575,"RA_OF_ASC_NODE":268.445,"ARG_OF_PERICENTER":104.3509,"MEAN_ANOMALY":255.7614,"EPHEMERIS_TYPE":0,"CLASSIFICATION_TYPE":"U","NORAD_CAT_ID":59385,"ELEMENT_SET_NO":999,"REV_AT_EPOCH":10924,"BSTAR":0.00027431595,"MEAN_MOTION_DOT":7.77e-5,"MEAN_MOTION_DDOT":0},{"OBJECT_NAME":"STARLINK-31688","OBJECT_ID":"2024-062N","EPOCH":"2026-03-07T06:30:14.329152","MEAN_MOTION":15.30201389,"ECCENTRICITY":0.0002437,"INCLINATION":53.1566,"RA_OF_ASC_NODE":269.5602,"ARG_OF_PERICENTER":86.2753,"MEAN_ANOMALY":273.8526,"EPHEMERIS_TYPE":0,"CLASSIFICATION_TYPE":"U","NORAD_CAT_ID":59386,"ELEMENT_SET_NO":999,"REV_AT_EPOCH":10922,"BSTAR":9.8589983e-5,"MEAN_MOTION_DOT":2.561e-5,"MEAN_MOTION_DDOT":0},{"OBJECT_NAME":"STARLINK-31714","OBJECT_ID":"2024-062P","EPOCH":"2026-03-06T23:33:44.531424","MEAN_MOTION":15.30197566,"ECCENTRICITY":0.00012989,"INCLINATION":53.1605,"RA_OF_ASC_NODE":268.4684,"ARG_OF_PERICENTER":225.0341,"MEAN_ANOMALY":135.0555,"EPHEMERIS_TYPE":0,"CLASSIFICATION_TYPE":"U","NORAD_CAT_ID":59387,"ELEMENT_SET_NO":999,"REV_AT_EPOCH":10920,"BSTAR":0.0002286891,"MEAN_MOTION_DOT":6.419e-5,"MEAN_MOTION_DDOT":0},{"OBJECT_NAME":"STARLINK-31643","OBJECT_ID":"2024-062Q","EPOCH":"2026-03-05T17:37:37.622208","MEAN_MOTION":15.30183836,"ECCENTRICITY":9.403e-5,"INCLINATION":53.1604,"RA_OF_ASC_NODE":274.1893,"ARG_OF_PERICENTER":80.5265,"MEAN_ANOMALY":279.5843,"EPHEMERIS_TYPE":0,"CLASSIFICATION_TYPE":"U","NORAD_CAT_ID":59388,"ELEMENT_SET_NO":999,"REV_AT_EPOCH":10906,"BSTAR":0.00010224518,"MEAN_MOTION_DOT":2.669e-5,"MEAN_MOTION_DDOT":0},{"OBJECT_NAME":"STARLINK-31647","OBJECT_ID":"2024-062R","EPOCH":"2026-03-06T23:41:21.859584","MEAN_MOTION":15.30190209,"ECCENTRICITY":0.00013145,"INCLINATION":53.1603,"RA_OF_ASC_NODE":268.5328,"ARG_OF_PERICENTER":78.2271,"MEAN_ANOMALY":281.8877,"EPHEMERIS_TYPE":0,"CLASSIFICATION_TYPE":"U","NORAD_CAT_ID":59389,"ELEMENT_SET_NO":999,"REV_AT_EPOCH":10925,"BSTAR":4.7049657e-5,"MEAN_MOTION_DOT":1.034e-5,"MEAN_MOTION_DDOT":0},{"OBJECT_NAME":"STARLINK-31649","OBJECT_ID":"2024-062S","EPOCH":"2026-03-06T23:09:26.333568","MEAN_MOTION":15.30193298,"ECCENTRICITY":0.00013032,"INCLINATION":53.1608,"RA_OF_ASC_NODE":268.3608,"ARG_OF_PERICENTER":85.4155,"MEAN_ANOMALY":274.6995,"EPHEMERIS_TYPE":0,"CLASSIFICATION_TYPE":"U","NORAD_CAT_ID":59390,"ELEMENT_SET_NO":999,"REV_AT_EPOCH":10925,"BSTAR":7.670741e-5,"MEAN_MOTION_DOT":1.913e-5,"MEAN_MOTION_DDOT":0},{"OBJECT_NAME":"STARLINK-31644","OBJECT_ID":"2024-062T","EPOCH":"2026-03-07T00:09:28.395360","MEAN_MOTION":15.30188347,"ECCENTRICITY":0.00011887,"INCLINATION":53.1583,"RA_OF_ASC_NODE":270.7533,"ARG_OF_PERICENTER":97.2637,"MEAN_ANOMALY":262.8499,"EPHEMERIS_TYPE":0,"CLASSIFICATION_TYPE":"U","NORAD_CAT_ID":59391,"ELEMENT_SET_NO":999,"REV_AT_EPOCH":10922,"BSTAR":2.6526351e-5,"MEAN_MOTION_DOT":4.26e-6,"MEAN_MOTION_DDOT":0},{"OBJECT_NAME":"STARLINK-31626","OBJECT_ID":"2024-062U","EPOCH":"2026-03-07T06:36:54.769824","MEAN_MOTION":15.30189171,"ECCENTRICITY":0.00013155,"INCLINATION":53.159,"RA_OF_ASC_NODE":266.7428,"ARG_OF_PERICENTER":100.8421,"MEAN_ANOMALY":259.2728,"EPHEMERIS_TYPE":0,"CLASSIFICATION_TYPE":"U","NORAD_CAT_ID":59392,"ELEMENT_SET_NO":999,"REV_AT_EPOCH":10930,"BSTAR":4.9439694e-5,"MEAN_MOTION_DOT":1.105e-5,"MEAN_MOTION_DDOT":0},{"OBJECT_NAME":"STARLINK-31443","OBJECT_ID":"2024-062V","EPOCH":"2026-03-06T19:10:31.541088","MEAN_MOTION":15.30186824,"ECCENTRICITY":0.00010198,"INCLINATION":53.1586,"RA_OF_ASC_NODE":256.4927,"ARG_OF_PERICENTER":82.41,"MEAN_ANOMALY":277.7017,"EPHEMERIS_TYPE":0,"CLASSIFICATION_TYPE":"U","NORAD_CAT_ID":59393,"ELEMENT_SET_NO":999,"REV_AT_EPOCH":10940,"BSTAR":4.1235604e-5,"MEAN_MOTION_DOT":8.62e-6,"MEAN_MOTION_DDOT":0},{"OBJECT_NAME":"STARLINK-31607","OBJECT_ID":"2024-062W","EPOCH":"2026-03-07T06:46:01.549632","MEAN_MOTION":15.30196562,"ECCENTRICITY":0.00011681,"INCLINATION":53.161,"RA_OF_ASC_NODE":266.7821,"ARG_OF_PERICENTER":94.9677,"MEAN_ANOMALY":265.1457,"EPHEMERIS_TYPE":0,"CLASSIFICATION_TYPE":"U","NORAD_CAT_ID":59394,"ELEMENT_SET_NO":999,"REV_AT_EPOCH":10929,"BSTAR":5.9940103e-5,"MEAN_MOTION_DOT":1.416e-5,"MEAN_MOTION_DDOT":0},{"OBJECT_NAME":"STARLINK-31608","OBJECT_ID":"2024-062X","EPOCH":"2026-03-07T05:54:31.581504","MEAN_MOTION":15.30193806,"ECCENTRICITY":8.536e-5,"INCLINATION":53.1582,"RA_OF_ASC_NODE":267.2708,"ARG_OF_PERICENTER":88.8302,"MEAN_ANOMALY":271.2797,"EPHEMERIS_TYPE":0,"CLASSIFICATION_TYPE":"U","NORAD_CAT_ID":59397,"ELEMENT_SET_NO":999,"REV_AT_EPOCH":10924,"BSTAR":2.7180552e-5,"MEAN_MOTION_DOT":4.46e-6,"MEAN_MOTION_DDOT":0},{"OBJECT_NAME":"STARLINK-31534","OBJECT_ID":"2024-064A","EPOCH":"2026-03-07T00:46:00.079104","MEAN_MOTION":15.27572943,"ECCENTRICITY":7.713e-5,"INCLINATION":43.0003,"RA_OF_ASC_NODE":70.8114,"ARG_OF_PERICENTER":274.1309,"MEAN_ANOMALY":85.9454,"EPHEMERIS_TYPE":0,"CLASSIFICATION_TYPE":"U","NORAD_CAT_ID":59398,"ELEMENT_SET_NO":999,"REV_AT_EPOCH":10876,"BSTAR":4.0113669e-5,"MEAN_MOTION_DOT":8.42e-6,"MEAN_MOTION_DDOT":0}]
